BEIDOU-3 M3
1 43208U 18018B   26118.33081600 -.00000057  00000+0  00000+0 0  9995
2 43208  56.6096  64.7951 0009967 330.5076  29.4011  1.86230991 55813
